GLOBALSTAR M075 [+]     
1 37192U 10054E   23277.34230226 -.00000093  00000+0  60525-4 0  9999
2 37192  51.9936 274.9204 0000500  53.2280  55.3744 12.62261856597479
GLOBALSTAR M073 [+]     
1 37193U 10054F   23277.51431310 -.00000069  00000+0  19373-3 0  9993
2 37193  52.0052 187.7400 0000728  68.0488 102.9232 12.62267977599378
GLOBALSTAR M083 [+]     
1 37739U 11033A   23277.36880744 -.00000089  00000+0  84112-4 0  9995
2 37739  51.9841 137.7624 0000589  70.1185 100.6506 12.62269746568320
GLOBALSTAR M088 [+]     
1 37740U 11033B   23277.64507512 -.00000104  00000+0 -35353-6 0  9991
2 37740  51.9750  42.9337 0000544  79.2583  26.8686 12.62265891563906
GLOBALSTAR M091 [+]     
1 37741U 11033C   23277.57916104 -.00000084  00000+0  11150-3 0  9997
2 37741  52.0024   5.5805 0000416  70.8326  34.9270 12.62266679564688
GLOBALSTAR M085 [+]     
1 37742U 11033D   23277.38703527 -.00000086  00000+0  10025-3 0  9992
2 37742  51.9876 317.7562 0000279  56.4630 316.6481 12.62263328565172
GLOBALSTAR M081 [+]     
1 37743U 11033E   23277.52227256 -.00000074  00000+0  16618-3 0  9990
2 37743  51.9969 319.7479 0000494  52.6472  95.1357 12.62264987565719
GLOBALSTAR M089 [+]     
1 37744U 11033F   23277.41003323 -.00000083  00000+0  11680-3 0  9990
2 37744  51.9918 274.4339 0000656  83.5276  93.5851 12.62267696566162
